ONEWEB-0597             
1 54663U 22166X   25158.89208440  .00000031  00000+0  44318-4 0  9994
2 54663  87.9253 318.6397 0001590  91.8760 268.2556 13.21827595122094
ONEWEB-0600             
1 54664U 22166Y   25158.87474694  .00000049  00000+0  87292-4 0  9996
2 54664  87.9236 318.6479 0001652  96.2224 263.9098 13.21826431122068
ONEWEB-0601             
1 54665U 22166Z   25158.86685384  .00000040  00000+0  64578-4 0  9999
2 54665  87.9257 318.6553 0001574  84.6484 275.4830 13.21826283122255
ONEWEB-0602             
1 54666U 22166AA  25158.90786735  .00000007  00000+0 -14777-4 0  9997
2 54666  87.9253 318.6479 0001533  94.3153 265.8156 13.21826040122104
ONEWEB-0603             
1 54667U 22166AB  25158.68550406  .00000049  00000+0  88312-4 0  9998
2 54667  87.9228 318.6400 0001524  89.2009 270.9300 13.21825492122001
ONEWEB-0604             
1 54668U 22166AC  25158.89996925 -.00000004  00000+0 -41924-4 0  9993
2 54668  87.9248 318.6111 0001533  94.6129 265.5180 13.21826496121994
ONEWEB-0605             
1 54669U 22166AD  25158.89366766  .00000048  00000+0  85061-4 0  9994
2 54669  87.9248 318.6432 0001730  71.7642 288.3680 13.21825888122539
ONEWEB-0606             
1 54670U 22166AE  25158.68865340  .00000076  00000+0  15296-3 0  9998
2 54670  87.9255 318.6938 0001980  97.7179 262.4180 13.21826060122092
